TRANSPORTER-16 OBJECT G 
1 68422U 26067G   26110.85487611  .00005941  00000+0  29245-3 0  9996
2 68422  97.4446  70.1737 0002874  87.2901 272.8662 15.18358301  3248
TRANSPORTER-16 OBJECT H 
1 68423U 26067H   26110.85564848  .00004278  00000+0  21190-3 0  9998
2 68423  97.4469  70.1783 0002633  97.3922 262.7611 15.18297453  3245
TRANSPORTER-16 OBJECT J 
1 68424U 26067J   26110.86302808  .00004906  00000+0  24608-3 0  9991
2 68424  97.4488  70.1731 0000814 166.9751 193.1504 15.17784760  3241
ERMIS-3                 
1 68425U 26067K   26110.85684202  .00004050  00000+0  20128-3 0  9995
2 68425  97.4554  70.1989 0002648 125.9600 234.1880 15.18212500  3248
TRANSPORTER-16 OBJECT L 
1 68426U 26067L   26110.85474411  .00009204  00000+0  44953-3 0  9993
2 68426  97.4513  70.1917 0002857 129.6223 230.5264 15.18477518  3247
TRANSPORTER-16 OBJECT M 
1 68427U 26067M   26110.78973185  .00007207  00000+0  35387-3 0  9990
2 68427  97.4515  70.1258 0002710 129.2818 230.8657 15.18369954  3234
OUT OF THE BOX (OOTB)   
1 68428U 26067N   26110.85874197  .00003297  00000+0  16519-3 0  9993
2 68428  97.4536  70.1924 0002177 138.4094 221.7306 15.18061758  3245
TRANSPORTER-16 OBJECT P 
1 68429U 26067P   26110.85946938  .00010077  00000+0  49645-3 0  9997
2 68429  97.4482  70.1746 0001842 172.4965 187.6297 15.18151628  3246
TRANSPORTER-16 OBJECT Q 
1 68430U 26067Q   26110.85662212  .00005539  00000+0  27353-3 0  9998
2 68430  97.4469  70.1772 0002161 104.5895 255.5579 15.18273973  3241
DISCO-2                 
1 68431U 26067R   26110.85761331  .00004878  00000+0  24177-3 0  9997
2 68431  97.4569  70.2023 0002706 145.0119 215.1293 15.18209162  3241
TRANSPORTER-16 OBJECT S 
1 68432U 26067S   26110.86073270  .00004559  00000+0  22784-3 0  9995
2 68432  97.4523  70.1875 0001762 168.2524 191.8751 15.17948570  3245
T.MICROSAT-22           
1 68433U 26067T   26110.81014713  .00004035  00000+0  20853-3 0  9992
2 68433  97.4538  70.1051 0003822 257.7956 102.2849 15.16840127  3231
TRANSPORTER-16 OBJECT U 
1 68434U 26067U   26110.85691547  .00003314  00000+0  16543-3 0  9993
2 68434  97.4546  70.1970 0002682 128.2951 231.8524 15.18190151  3248
ION SCV ASTOUNDING ALEX*
1 68435U 26067V   26110.86446634  .00002433  00000+0  12425-3 0  9996
2 68435  97.4514  70.1798 0001085 204.4326 155.6856 15.17634746  3244
